[
  {
    "_id": { "$oid": "679c9c6b5749c4077500ea01" },
    "name_en": "Mexico",
    "name_fa": "مکزیک",
    "flag": "https://upload.wikimedia.org/wikipedia/commons/thumb/f/fc/Flag_of_Mexico.svg/125px-Flag_of_Mexico.svg.png",
    "fifa_code": "MEX",
    "iso2": "MX",
    "groups": "A",
    "id": "1"
  },
  {
    "_id": { "$oid": "679c9c6b5749c4077500ea02" },
    "name_en": "South Africa",
    "name_fa": "آفریقای جنوبی",
    "flag": "https://upload.wikimedia.org/wikipedia/commons/thumb/a/af/Flag_of_South_Africa.svg/125px-Flag_of_South_Africa.svg.png",
    "fifa_code": "RSA",
    "iso2": "ZA",
    "groups": "A",
    "id": "2"
  },
  {
    "_id": { "$oid": "679c9c6b5749c4077500ea03" },
    "name_en": "South Korea",
    "name_fa": "کره جنوبی",
    "flag": "https://upload.wikimedia.org/wikipedia/commons/thumb/0/09/Flag_of_South_Korea.svg/125px-Flag_of_South_Korea.svg.png",
    "fifa_code": "KOR",
    "iso2": "KR",
    "groups": "A",
    "id": "3"
  },
  {
    "_id": { "$oid": "679c9c6b5749c4077500ea04" },
    "name_en": "UEFA Path D Winner",
    "name_fa": "برنده مسیر D یوفا",
    "flag": "",
    "fifa_code": "TBD",
    "iso2": "TBD",
    "groups": "A",
    "id": "4"
  },
  {
    "_id": { "$oid": "679c9c6b5749c4077500ea05" },
    "name_en": "Canada",
    "name_fa": "کانادا",
    "flag": "https://upload.wikimedia.org/wikipedia/commons/thumb/d/d9/Flag_of_Canada_%28Pantone%29.svg/125px-Flag_of_Canada_%28Pantone%29.svg.png",
    "fifa_code": "CAN",
    "iso2": "CA",
    "groups": "B",
    "id": "5"
  },
  {
    "_id": { "$oid": "679c9c6b5749c4077500ea06" },
    "name_en": "UEFA Path A Winner",
    "name_fa": "برنده مسیر A یوفا",
    "flag": "",
    "fifa_code": "TBD",
    "iso2": "TBD",
    "groups": "B",
    "id": "6"
  },
  {
    "_id": { "$oid": "679c9c6b5749c4077500ea07" },
    "name_en": "Qatar",
    "name_fa": "قطر",
    "flag": "https://upload.wikimedia.org/wikipedia/commons/thumb/6/65/Flag_of_Qatar.svg/125px-Flag_of_Qatar.svg.png",
    "fifa_code": "QAT",
    "iso2": "QA",
    "groups": "B",
    "id": "7"
  },
  {
    "_id": { "$oid": "679c9c6b5749c4077500ea08" },
    "name_en": "Switzerland",
    "name_fa": "سوئیس",
    "flag": "https://upload.wikimedia.org/wikipedia/commons/thumb/f/f3/Flag_of_Switzerland.svg/100px-Flag_of_Switzerland.svg.png",
    "fifa_code": "SUI",
    "iso2": "CH",
    "groups": "B",
    "id": "8"
  },
  {
    "_id": { "$oid": "679c9c6b5749c4077500ea09" },
    "name_en": "Brazil",
    "name_fa": "برزیل",
    "flag": "https://upload.wikimedia.org/wikipedia/commons/thumb/0/05/Flag_of_Brazil.svg/125px-Flag_of_Brazil.svg.png",
    "fifa_code": "BRA",
    "iso2": "BR",
    "groups": "C",
    "id": "9"
  },
  {
    "_id": { "$oid": "679c9c6b5749c4077500ea10" },
    "name_en": "Morocco",
    "name_fa": "مراکش",
    "flag": "https://upload.wikimedia.org/wikipedia/commons/thumb/2/2c/Flag_of_Morocco.svg/125px-Flag_of_Morocco.svg.png",
    "fifa_code": "MAR",
    "iso2": "MA",
    "groups": "C",
    "id": "10"
  },
  {
    "_id": { "$oid": "679c9c6b5749c4077500ea11" },
    "name_en": "Haiti",
    "name_fa": "هائیتی",
    "flag": "https://upload.wikimedia.org/wikipedia/commons/thumb/5/56/Flag_of_Haiti.svg/125px-Flag_of_Haiti.svg.png",
    "fifa_code": "HAI",
    "iso2": "HT",
    "groups": "C",
    "id": "11"
  },
  {
    "_id": { "$oid": "679c9c6b5749c4077500ea12" },
    "name_en": "Scotland",
    "name_fa": "اسکاتلند",
    "flag": "https://upload.wikimedia.org/wikipedia/commons/thumb/1/10/Flag_of_Scotland.svg/125px-Flag_of_Scotland.svg.png",
    "fifa_code": "SCO",
    "iso2": "SCO",
    "groups": "C",
    "id": "12"
  },
  {
    "_id": { "$oid": "679c9c6b5749c4077500ea13" },
    "name_en": "United States",
    "name_fa": "آمریکا",
    "flag": "https://upload.wikimedia.org/wikipedia/en/thumb/a/a4/Flag_of_the_United_States.svg/125px-Flag_of_the_United_States.svg.png",
    "fifa_code": "USA",
    "iso2": "US",
    "groups": "D",
    "id": "13"
  },
  {
    "_id": { "$oid": "679c9c6b5749c4077500ea14" },
    "name_en": "Paraguay",
    "name_fa": "پاراگوئه",
    "flag": "https://upload.wikimedia.org/wikipedia/commons/thumb/2/27/Flag_of_Paraguay.svg/125px-Flag_of_Paraguay.svg.png",
    "fifa_code": "PAR",
    "iso2": "PY",
    "groups": "D",
    "id": "14"
  },
  {
    "_id": { "$oid": "679c9c6b5749c4077500ea15" },
    "name_en": "Australia",
    "name_fa": "استرالیا",
    "flag": "https://upload.wikimedia.org/wikipedia/commons/thumb/8/88/Flag_of_Australia_%28converted%29.svg/125px-Flag_of_Australia_%28converted%29.svg.png",
    "fifa_code": "AUS",
    "iso2": "AU",
    "groups": "D",
    "id": "15"
  },
  {
    "_id": { "$oid": "679c9c6b5749c4077500ea16" },
    "name_en": "UEFA Path C Winner",
    "name_fa": "برنده مسیر C یوفا",
    "flag": "",
    "fifa_code": "TBD",
    "iso2": "TBD",
    "groups": "D",
    "id": "16"
  },
  {
    "_id": { "$oid": "679c9c6b5749c4077500ea17" },
    "name_en": "Germany",
    "name_fa": "آلمان",
    "flag": "https://upload.wikimedia.org/wikipedia/commons/thumb/b/ba/Flag_of_Germany.svg/125px-Flag_of_Germany.svg.png",
    "fifa_code": "GER",
    "iso2": "DE",
    "groups": "E",
    "id": "17"
  },
  {
    "_id": { "$oid": "679c9c6b5749c4077500ea18" },
    "name_en": "Curaçao",
    "name_fa": "کوراسائو",
    "flag": "https://upload.wikimedia.org/wikipedia/commons/thumb/b/b1/Flag_of_Cura%C3%A7ao.svg/125px-Flag_of_Cura%C3%A7ao.svg.png",
    "fifa_code": "CUW",
    "iso2": "CW",
    "groups": "E",
    "id": "18"
  },
  {
    "_id": { "$oid": "679c9c6b5749c4077500ea19" },
    "name_en": "Ivory Coast",
    "name_fa": "ساحل عاج",
    "flag": "https://upload.wikimedia.org/wikipedia/commons/thumb/f/fe/Flag_of_C%C3%B4te_d%27Ivoire.svg/125px-Flag_of_C%C3%B4te_d%27Ivoire.svg.png",
    "fifa_code": "CIV",
    "iso2": "CI",
    "groups": "E",
    "id": "19"
  },
  {
    "_id": { "$oid": "679c9c6b5749c4077500ea20" },
    "name_en": "Ecuador",
    "name_fa": "اکوادور",
    "flag": "https://upload.wikimedia.org/wikipedia/commons/thumb/e/e8/Flag_of_Ecuador.svg/125px-Flag_of_Ecuador.svg.png",
    "fifa_code": "ECU",
    "iso2": "EC",
    "groups": "E",
    "id": "20"
  },
  {
    "_id": { "$oid": "679c9c6b5749c4077500ea21" },
    "name_en": "Netherlands",
    "name_fa": "هلند",
    "flag": "https://upload.wikimedia.org/wikipedia/commons/thumb/2/20/Flag_of_the_Netherlands.svg/125px-Flag_of_the_Netherlands.svg.png",
    "fifa_code": "NED",
    "iso2": "NL",
    "groups": "F",
    "id": "21"
  },
  {
    "_id": { "$oid": "679c9c6b5749c4077500ea22" },
    "name_en": "Japan",
    "name_fa": "ژاپن",
    "flag": "https://upload.wikimedia.org/wikipedia/commons/thumb/9/9e/Flag_of_Japan.svg/125px-Flag_of_Japan.svg.png",
    "fifa_code": "JPN",
    "iso2": "JP",
    "groups": "F",
    "id": "22"
  },
  {
    "_id": { "$oid": "679c9c6b5749c4077500ea23" },
    "name_en": "UEFA Path B Winner",
    "name_fa": "برنده مسیر B یوفا",
    "flag": "",
    "fifa_code": "TBD",
    "iso2": "TBD",
    "groups": "F",
    "id": "23"
  },
  {
    "_id": { "$oid": "679c9c6b5749c4077500ea24" },
    "name_en": "Tunisia",
    "name_fa": "تونس",
    "flag": "https://upload.wikimedia.org/wikipedia/commons/thumb/c/ce/Flag_of_Tunisia.svg/125px-Flag_of_Tunisia.svg.png",
    "fifa_code": "TUN",
    "iso2": "TN",
    "groups": "F",
    "id": "24"
  },
  {
    "_id": { "$oid": "679c9c6b5749c4077500ea25" },
    "name_en": "Belgium",
    "name_fa": "بلژیک",
    "flag": "https://upload.wikimedia.org/wikipedia/commons/thumb/6/65/Flag_of_Belgium.svg/125px-Flag_of_Belgium.svg.png",
    "fifa_code": "BEL",
    "iso2": "BE",
    "groups": "G",
    "id": "25"
  },
  {
    "_id": { "$oid": "679c9c6b5749c4077500ea26" },
    "name_en": "Egypt",
    "name_fa": "مصر",
    "flag": "https://upload.wikimedia.org/wikipedia/commons/thumb/f/fe/Flag_of_Egypt.svg/125px-Flag_of_Egypt.svg.png",
    "fifa_code": "EGY",
    "iso2": "EG",
    "groups": "G",
    "id": "26"
  },
  {
    "_id": { "$oid": "679c9c6b5749c4077500ea27" },
    "name_en": "Iran",
    "name_fa": "ایران",
    "flag": "https://upload.wikimedia.org/wikipedia/commons/c/ca/Flag_of_Iran.svg",
    "fifa_code": "IRN",
    "iso2": "IR",
    "groups": "G",
    "id": "27"
  },
  {
    "_id": { "$oid": "679c9c6b5749c4077500ea28" },
    "name_en": "New Zealand",
    "name_fa": "نیوزیلند",
    "flag": "https://upload.wikimedia.org/wikipedia/commons/thumb/3/3e/Flag_of_New_Zealand.svg/125px-Flag_of_New_Zealand.svg.png",
    "fifa_code": "NZL",
    "iso2": "NZ",
    "groups": "G",
    "id": "28"
  },
  {
    "_id": { "$oid": "679c9c6b5749c4077500ea29" },
    "name_en": "Spain",
    "name_fa": "اسپانیا",
    "flag": "https://upload.wikimedia.org/wikipedia/commons/thumb/9/9a/Flag_of_Spain.svg/125px-Flag_of_Spain.svg.png",
    "fifa_code": "ESP",
    "iso2": "ES",
    "groups": "H",
    "id": "29"
  },
  {
    "_id": { "$oid": "679c9c6b5749c4077500ea30" },
    "name_en": "Cape Verde",
    "name_fa": "کیپ ورد",
    "flag": "https://upload.wikimedia.org/wikipedia/commons/thumb/3/38/Flag_of_Cape_Verde.svg/125px-Flag_of_Cape_Verde.svg.png",
    "fifa_code": "CPV",
    "iso2": "CV",
    "groups": "H",
    "id": "30"
  },
  {
    "_id": { "$oid": "679c9c6b5749c4077500ea31" },
    "name_en": "Saudi Arabia",
    "name_fa": "عربستان",
    "flag": "https://upload.wikimedia.org/wikipedia/commons/thumb/0/0d/Flag_of_Saudi_Arabia.svg/125px-Flag_of_Saudi_Arabia.svg.png",
    "fifa_code": "KSA",
    "iso2": "SA",
    "groups": "H",
    "id": "31"
  },
  {
    "_id": { "$oid": "679c9c6b5749c4077500ea32" },
    "name_en": "Uruguay",
    "name_fa": "اروگوئه",
    "flag": "https://upload.wikimedia.org/wikipedia/commons/thumb/f/fe/Flag_of_Uruguay.svg/125px-Flag_of_Uruguay.svg.png",
    "fifa_code": "URU",
    "iso2": "UY",
    "groups": "H",
    "id": "32"
  },
  {
    "_id": { "$oid": "679c9c6b5749c4077500ea33" },
    "name_en": "France",
    "name_fa": "فرانسه",
    "flag": "https://upload.wikimedia.org/wikipedia/commons/thumb/c/c3/Flag_of_France.svg/125px-Flag_of_France.svg.png",
    "fifa_code": "FRA",
    "iso2": "FR",
    "groups": "I",
    "id": "33"
  },
  {
    "_id": { "$oid": "679c9c6b5749c4077500ea34" },
    "name_en": "Senegal",
    "name_fa": "سنگال",
    "flag": "https://upload.wikimedia.org/wikipedia/commons/thumb/f/fd/Flag_of_Senegal.svg/125px-Flag_of_Senegal.svg.png",
    "fifa_code": "SEN",
    "iso2": "SN",
    "groups": "I",
    "id": "34"
  },
  {
    "_id": { "$oid": "679c9c6b5749c4077500ea35" },
    "name_en": "IC Path 2 Winner",
    "name_fa": "برنده مسیر 2 بین‌قاره‌ای",
    "flag": "",
    "fifa_code": "TBD",
    "iso2": "TBD",
    "groups": "I",
    "id": "35"
  },
  {
    "_id": { "$oid": "679c9c6b5749c4077500ea36" },
    "name_en": "Norway",
    "name_fa": "نروژ",
    "flag": "https://upload.wikimedia.org/wikipedia/commons/thumb/d/d9/Flag_of_Norway.svg/125px-Flag_of_Norway.svg.png",
    "fifa_code": "NOR",
    "iso2": "NO",
    "groups": "I",
    "id": "36"
  },
  {
    "_id": { "$oid": "679c9c6b5749c4077500ea37" },
    "name_en": "Argentina",
    "name_fa": "آرژانتین",
    "flag": "https://upload.wikimedia.org/wikipedia/commons/thumb/1/1a/Flag_of_Argentina.svg/125px-Flag_of_Argentina.svg.png",
    "fifa_code": "ARG",
    "iso2": "AR",
    "groups": "J",
    "id": "37"
  },
  {
    "_id": { "$oid": "679c9c6b5749c4077500ea38" },
    "name_en": "Algeria",
    "name_fa": "الجزایر",
    "flag": "https://upload.wikimedia.org/wikipedia/commons/thumb/7/77/Flag_of_Algeria.svg/125px-Flag_of_Algeria.svg.png",
    "fifa_code": "ALG",
    "iso2": "DZ",
    "groups": "J",
    "id": "38"
  },
  {
    "_id": { "$oid": "679c9c6b5749c4077500ea39" },
    "name_en": "Austria",
    "name_fa": "اتریش",
    "flag": "https://upload.wikimedia.org/wikipedia/commons/thumb/4/41/Flag_of_Austria.svg/125px-Flag_of_Austria.svg.png",
    "fifa_code": "AUT",
    "iso2": "AT",
    "groups": "J",
    "id": "39"
  },
  {
    "_id": { "$oid": "679c9c6b5749c4077500ea40" },
    "name_en": "Jordan",
    "name_fa": "اردن",
    "flag": "https://upload.wikimedia.org/wikipedia/commons/thumb/c/c0/Flag_of_Jordan.svg/125px-Flag_of_Jordan.svg.png",
    "fifa_code": "JOR",
    "iso2": "JO",
    "groups": "J",
    "id": "40"
  },
  {
    "_id": { "$oid": "679c9c6b5749c4077500ea41" },
    "name_en": "Portugal",
    "name_fa": "پرتغال",
    "flag": "https://upload.wikimedia.org/wikipedia/commons/thumb/5/5c/Flag_of_Portugal.svg/125px-Flag_of_Portugal.svg.png",
    "fifa_code": "POR",
    "iso2": "PT",
    "groups": "K",
    "id": "41"
  },
  {
    "_id": { "$oid": "679c9c6b5749c4077500ea42" },
    "name_en": "IC Path 1 Winner",
    "name_fa": "برنده مسیر 1 بین‌قاره‌ای",
    "flag": "",
    "fifa_code": "TBD",
    "iso2": "TBD",
    "groups": "K",
    "id": "42"
  },
  {
    "_id": { "$oid": "679c9c6b5749c4077500ea43" },
    "name_en": "Uzbekistan",
    "name_fa": "ازبکستان",
    "flag": "https://upload.wikimedia.org/wikipedia/commons/thumb/8/84/Flag_of_Uzbekistan.svg/125px-Flag_of_Uzbekistan.svg.png",
    "fifa_code": "UZB",
    "iso2": "UZ",
    "groups": "K",
    "id": "43"
  },
  {
    "_id": { "$oid": "679c9c6b5749c4077500ea44" },
    "name_en": "Colombia",
    "name_fa": "کلمبیا",
    "flag": "https://upload.wikimedia.org/wikipedia/commons/thumb/2/21/Flag_of_Colombia.svg/125px-Flag_of_Colombia.svg.png",
    "fifa_code": "COL",
    "iso2": "CO",
    "groups": "K",
    "id": "44"
  },
  {
    "_id": { "$oid": "679c9c6b5749c4077500ea45" },
    "name_en": "England",
    "name_fa": "انگلستان",
    "flag": "https://upload.wikimedia.org/wikipedia/en/thumb/b/be/Flag_of_England.svg/125px-Flag_of_England.svg.png",
    "fifa_code": "ENG",
    "iso2": "ENG",
    "groups": "L",
    "id": "45"
  },
  {
    "_id": { "$oid": "679c9c6b5749c4077500ea46" },
    "name_en": "Croatia",
    "name_fa": "کرواسی",
    "flag": "https://upload.wikimedia.org/wikipedia/commons/thumb/1/1b/Flag_of_Croatia.svg/125px-Flag_of_Croatia.svg.png",
    "fifa_code": "CRO",
    "iso2": "HR",
    "groups": "L",
    "id": "46"
  },
  {
    "_id": { "$oid": "679c9c6b5749c4077500ea47" },
    "name_en": "Ghana",
    "name_fa": "غنا",
    "flag": "https://upload.wikimedia.org/wikipedia/commons/thumb/1/19/Flag_of_Ghana.svg/125px-Flag_of_Ghana.svg.png",
    "fifa_code": "GHA",
    "iso2": "GH",
    "groups": "L",
    "id": "47"
  },
  {
    "_id": { "$oid": "679c9c6b5749c4077500ea48" },
    "name_en": "Panama",
    "name_fa": "پاناما",
    "flag": "https://upload.wikimedia.org/wikipedia/commons/thumb/a/ab/Flag_of_Panama.svg/125px-Flag_of_Panama.svg.png",
    "fifa_code": "PAN",
    "iso2": "PA",
    "groups": "L",
    "id": "48"
  }
]